STARLINK-2536_new
1 18310C 21036AL  21326.17673623  .00004984  00000-0  33398-3 0  3265
2 18310  53.0546 292.9369 0002068  56.9766 251.8495 15.06387437    15
STARLINK-2536_old
1 28310C 21036AL  21325.14489616  .00002891  00000-0  19366-3 0  3251
2 28310  53.0541 297.5690 0002046  57.4404  52.5439 15.06401587    16
